API VERSION: 1.2
API SOURCE: NASA/JPL Horizons API

*******************************************************************************
 Revised: April 12, 2021                Venus                           299 / 2
 
 PHYSICAL DATA (updated 2020-Oct-19):
  Vol. Mean Radius (km) =  6051.84+-0.01 Density (g/cm^3)      =  5.204
  Mass x10^23 (kg)      =    48.685      Volume (x10^10 km^3)  = 92.843
  Sidereal rot. period  =   243.018484 d Sid. Rot. Rate (rad/s)= -0.00000029924
  Mean solar day        =   116.7490 d   Equ. gravity  m/s^2   =  8.870
  Mom. of Inertia       =     0.33       Core radius (km)      = ~3200
  Geometric Albedo      =     0.65       Potential Love # k2   = ~0.25
  GM (km^3/s^2)         = 324858.592     Equatorial Radius, Re = 6051.893 km
  GM 1-sigma (km^3/s^2) =    +-0.006     Mass ratio (Sun/Venus)= 408523.72
  Atmos. pressure (bar) =  90            Max. angular diam.    =   60.2"
  Mean Temperature (K)  = 735            Visual mag. V(1,0)    =   -4.40
  Obliquity to orbit    = 177.3 deg      Hill's sphere rad.,Rp =  167.1
  Sidereal orb. per., y =   0.61519726   Orbit speed, km/s     =   35.021
  Sidereal orb. per., d = 224.70079922   Escape speed, km/s    =   10.361
                                 Perihelion  Aphelion    Mean
  Solar Constant (W/m^2)         2759         2614       2650
  Maximum Planetary IR (W/m^2)    153         153         153
  Minimum Planetary IR (W/m^2)    153         153         153
*******************************************************************************


*******************************************************************************
Ephemeris / API_USER Thu Feb 19 13:06:07 2026 Pasadena, USA      / Horizons
*******************************************************************************
Target body name: Venus (299)                     {source: DE441}
Center body name: Sun (10)                        {source: DE441}
Center-site name: BODY CENTER
*******************************************************************************
Start time      : A.D. 2025-Mar-20 02:56:00.0000 TDB
Stop  time      : A.D. 2025-Mar-23 02:56:00.0000 TDB
Step-size       : 60 minutes
*******************************************************************************
Center geodetic : 0.0, 0.0, 0.0                   {E-lon(deg),Lat(deg),Alt(km)}
Center cylindric: 0.0, 0.0, 0.0                   {E-lon(deg),Dxy(km),Dz(km)}
Center radii    : 695700.0, 695700.0, 695700.0 km {Equator_a, b, pole_c}
Output units    : AU-D
Calendar mode   : Mixed Julian/Gregorian
Output type     : GEOMETRIC cartesian states
Output format   : 3 (position, velocity, LT, range, range-rate)
Reference frame : Ecliptic of J2000.0
*******************************************************************************
JDTDB
   X     Y     Z
   VX    VY    VZ
   LT    RG    RR
*******************************************************************************
$$SOE
2460757.622222222 = A.D. 2025-Mar-23 02:56:00.0000 TDB 
 X =-7.184130340047801E-01 Y =-3.046186590717733E-02 Z = 4.103356178119864E-02
 VX= 7.361220165059842E-04 VY=-2.029736479616507E-02 VZ=-3.212829414274947E-04
 LT= 4.159692398103606E-03 RG= 7.202284123074787E-01 RR= 1.059005291715550E-04
